{
  "type": "FeatureCollection",
  "period_id": "c1550",
  "features": [
    {
      "type": "Feature",
      "id": "walls.alhambra-perimeter",
      "properties": {
        "period_id": "c1550",
        "presence": "present",
        "temporal_confidence": "secure",
        "spatial_confidence": "probable",
        "change_from_previous": "altered",
        "physical_state": "complete",
        "name": "Muralla de la Alhambra",
        "function": "Recinto palatino, militar y representativo bajo administración cristiana",
        "summary": "La muralla nazarí seguía definiendo la Casa Real de la Alhambra, con reparaciones y nuevas obras imperiales que modificaron puntos concretos sin borrar el perímetro general.",
        "evidence_note": "Se reutiliza provisionalmente la alineación de fábrica conservada; cada persistencia y reparación debe revisarse antes de promover el estado.",
        "geometry_variant_id": "c1550.walls.alhambra-perimeter",
        "citations": [
          {
            "source_id": "source.alhambra-history",
            "locator": "Etapa cristiana de la Alhambra",
            "supports": "Continuidad del recinto como Casa Real y transformaciones después de 1492."
          }
        ],
        "id": "walls.alhambra-perimeter",
        "aliases": [
          "Recinto de la Alhambra",
          "Cerca de la Casa Real"
        ],
        "modern_search_terms": [
          "Torres de la Alhambra",
          "Camino de Ronda"
        ],
        "category": "walls_gates",
        "subtype": "palatine_enclosure",
        "evidence_basis": [
          "surviving_fabric",
          "documentary",
          "archaeology"
        ],
        "geometry_method": "surviving_footprint",
        "geometry_source_refs": [
          "source.openstreetmap",
          "source.pnoa-andalucia-2022",
          "source.alhambra-fortified-city-guide",
          "source.alhambra-history"
        ],
        "publication_status": "research"
      },
      "geometry": {
        "type": "LineString",
        "coordinates": [
          [
            -3.5904008,
            37.1762034
          ],
          [
            -3.5904632,
            37.1760845
          ],
          [
            -3.5903181,
            37.1760362
          ],
          [
            -3.5902421,
            37.1761837
          ],
          [
            -3.5898379,
            37.1760016
          ],
          [
            -3.5898207,
            37.1760299
          ],
          [
            -3.5893598,
            37.1759021
          ],
          [
            -3.5888185,
            37.175696
          ],
          [
            -3.58824,
            37.1753493
          ],
          [
            -3.5884215,
            37.1751752
          ],
          [
            -3.588307,
            37.175092
          ],
          [
            -3.588113,
            37.1752738
          ],
          [
            -3.5877169,
            37.175031
          ],
          [
            -3.587757,
            37.1749793
          ],
          [
            -3.5876955,
            37.174949
          ],
          [
            -3.5876555,
            37.1750008
          ],
          [
            -3.587296,
            37.1748742
          ],
          [
            -3.5873264,
            37.1748148
          ],
          [
            -3.5872563,
            37.1747902
          ],
          [
            -3.5872203,
            37.1748496
          ],
          [
            -3.5868464,
            37.1747795
          ],
          [
            -3.5868569,
            37.1745239
          ],
          [
            -3.5867888,
            37.1744557
          ],
          [
            -3.5866438,
            37.1744889
          ],
          [
            -3.5866362,
            37.174769
          ],
          [
            -3.5860332,
            37.1747367
          ],
          [
            -3.5860382,
            37.1746621
          ],
          [
            -3.5859778,
            37.1746595
          ],
          [
            -3.5859727,
            37.1747341
          ],
          [
            -3.5856612,
            37.1747092
          ],
          [
            -3.5856229,
            37.1746328
          ],
          [
            -3.5855575,
            37.1746537
          ],
          [
            -3.5855962,
            37.174731
          ],
          [
            -3.5853783,
            37.1748143
          ],
          [
            -3.5851333,
            37.1747984
          ],
          [
            -3.5851283,
            37.1748943
          ],
          [
            -3.5851749,
            37.1749141
          ],
          [
            -3.5851523,
            37.175106
          ],
          [
            -3.5851054,
            37.1752708
          ],
          [
            -3.5850124,
            37.1752835
          ],
          [
            -3.5850174,
            37.1753266
          ],
          [
            -3.5851426,
            37.1753323
          ],
          [
            -3.5857955,
            37.1756592
          ],
          [
            -3.585736,
            37.1757398
          ],
          [
            -3.5858321,
            37.1757848
          ],
          [
            -3.5858867,
            37.1757109
          ],
          [
            -3.5860817,
            37.1758411
          ],
          [
            -3.5863404,
            37.1761548
          ],
          [
            -3.5862042,
            37.1762143
          ],
          [
            -3.5862482,
            37.1762782
          ],
          [
            -3.5863844,
            37.1762187
          ],
          [
            -3.586602,
            37.1763751
          ],
          [
            -3.5867935,
            37.1766103
          ],
          [
            -3.5867189,
            37.1766663
          ],
          [
            -3.5867603,
            37.1767014
          ],
          [
            -3.586835,
            37.1766454
          ],
          [
            -3.5872402,
            37.1768709
          ],
          [
            -3.5871387,
            37.176937
          ],
          [
            -3.5871925,
            37.1770251
          ],
          [
            -3.5871071,
            37.1770715
          ],
          [
            -3.5871513,
            37.1771175
          ],
          [
            -3.5870855,
            37.1771584
          ],
          [
            -3.5871434,
            37.1772187
          ],
          [
            -3.587341,
            37.1771162
          ],
          [
            -3.5874662,
            37.1772301
          ],
          [
            -3.5875589,
            37.1771667
          ],
          [
            -3.5879109,
            37.1771306
          ],
          [
            -3.5882113,
            37.177264
          ],
          [
            -3.5884071,
            37.1773826
          ],
          [
            -3.5884087,
            37.1774272
          ],
          [
            -3.5884797,
            37.1774256
          ],
          [
            -3.5884806,
            37.1774789
          ],
          [
            -3.5885558,
            37.177478
          ],
          [
            -3.5885548,
            37.1774248
          ],
          [
            -3.5888708,
            37.1774184
          ],
          [
            -3.589209,
            37.1776591
          ],
          [
            -3.5892664,
            37.1776483
          ],
          [
            -3.5892533,
            37.1776041
          ],
          [
            -3.5895935,
            37.1775553
          ],
          [
            -3.5895922,
            37.1776325
          ],
          [
            -3.5897694,
            37.1776344
          ],
          [
            -3.5897718,
            37.1774932
          ],
          [
            -3.5901561,
            37.1775157
          ],
          [
            -3.5901551,
            37.177547
          ],
          [
            -3.5905371,
            37.1775102
          ],
          [
            -3.5905348,
            37.1775486
          ],
          [
            -3.5908728,
            37.1775293
          ],
          [
            -3.5910547,
            37.1775787
          ],
          [
            -3.5913596,
            37.1775878
          ],
          [
            -3.5918529,
            37.1773218
          ],
          [
            -3.5919636,
            37.1773102
          ],
          [
            -3.5919805,
            37.1773929
          ],
          [
            -3.59209,
            37.1773788
          ],
          [
            -3.5920724,
            37.1772921
          ],
          [
            -3.5925184,
            37.1772352
          ],
          [
            -3.5929544,
            37.1771175
          ],
          [
            -3.5929711,
            37.1771469
          ],
          [
            -3.593067,
            37.1770697
          ],
          [
            -3.5930402,
            37.176965
          ],
          [
            -3.5927612,
            37.1767876
          ],
          [
            -3.5927532,
            37.1768282
          ],
          [
            -3.592331,
            37.1768173
          ],
          [
            -3.5923204,
            37.1767407
          ],
          [
            -3.5921224,
            37.1767265
          ],
          [
            -3.5921146,
            37.1768227
          ],
          [
            -3.5912123,
            37.1767793
          ],
          [
            -3.5909558,
            37.1765922
          ],
          [
            -3.5910053,
            37.1765267
          ],
          [
            -3.590914,
            37.1763735
          ],
          [
            -3.5904008,
            37.1762034
          ]
        ]
      }
    },
    {
      "type": "Feature",
      "id": "water.darro",
      "properties": {
        "period_id": "c1550",
        "presence": "present",
        "temporal_confidence": "secure",
        "spatial_confidence": "probable",
        "change_from_previous": "retained",
        "physical_state": "complete",
        "name": "Río Darro",
        "function": "Cauce urbano, fuente de acequias y receptor de desagües",
        "summary": "El Darro continuaba atravesando Granada y alimentando una red de acequias en la primera mitad del siglo XVI, mientras las obras de Plaza Nueva modificaban localmente su relación con la ciudad.",
        "evidence_note": "La presencia y función hidráulica son seguras; el eje moderno bajo Reyes Católicos corresponde al gran embovedado del siglo XIX y no debe proyectarse sin auditoría.",
        "geometry_variant_id": "c1550.water.darro",
        "citations": [
          {
            "source_id": "source.ugr-water-ordinances-2022",
            "locator": "Apartados 2.1 y 3, acequias del Darro y desagüe",
            "supports": "Documenta el río y la red regulada dependiente de sus aguas."
          },
          {
            "source_id": "source.junta-darro-reyes-catolicos",
            "locator": "Intervención y contextualización del embovedado de 1858",
            "supports": "Fecha la gran transformación moderna y sus muros laterales."
          }
        ],
        "id": "water.darro",
        "aliases": [
          "Darro"
        ],
        "modern_search_terms": [
          "Carrera del Darro",
          "Paseo de los Tristes",
          "Plaza Nueva",
          "Reyes Católicos",
          "Acera del Darro",
          "Puerta Real"
        ],
        "category": "water_infrastructure",
        "subtype": "river",
        "evidence_basis": [
          "documentary",
          "later_description"
        ],
        "geometry_method": "reconstructed_from_multiple_sources",
        "geometry_source_refs": [
          "source.dera-hydrology",
          "source.granada-water-culture",
          "source.granada-carrera-darro",
          "source.granada-darro-vault",
          "source.junta-darro-reyes-catolicos",
          "source.granada-pepri-islamic-city",
          "source.openstreetmap",
          "source.ugr-water-ordinances-2022"
        ],
        "publication_status": "research"
      },
      "geometry": {
        "type": "LineString",
        "coordinates": [
          [
            -3.551999,
            37.1782832
          ],
          [
            -3.5533966,
            37.1784179
          ],
          [
            -3.5538969,
            37.1786851
          ],
          [
            -3.5541821,
            37.1792803
          ],
          [
            -3.5546546,
            37.1795632
          ],
          [
            -3.5564348,
            37.179822
          ],
          [
            -3.5572625,
            37.1801852
          ],
          [
            -3.5591066,
            37.1798482
          ],
          [
            -3.5593045,
            37.1804355
          ],
          [
            -3.5601674,
            37.1805691
          ],
          [
            -3.5607659,
            37.1808604
          ],
          [
            -3.561127,
            37.1808631
          ],
          [
            -3.5620045,
            37.1803129
          ],
          [
            -3.5626387,
            37.18045
          ],
          [
            -3.5636913,
            37.1810264
          ],
          [
            -3.5659735,
            37.1806347
          ],
          [
            -3.5666482,
            37.1809227
          ],
          [
            -3.5676113,
            37.1810015
          ],
          [
            -3.5680004,
            37.1809207
          ],
          [
            -3.5683881,
            37.1803037
          ],
          [
            -3.568821,
            37.1801233
          ],
          [
            -3.5693966,
            37.1809219
          ],
          [
            -3.5703758,
            37.1809975
          ],
          [
            -3.5718614,
            37.181448
          ],
          [
            -3.5731571,
            37.1813112
          ],
          [
            -3.5739227,
            37.1809537
          ],
          [
            -3.5745005,
            37.1809688
          ],
          [
            -3.5756351,
            37.1806076
          ],
          [
            -3.5764222,
            37.1808857
          ],
          [
            -3.5779101,
            37.1806233
          ],
          [
            -3.5804635,
            37.1809366
          ],
          [
            -3.5810798,
            37.1806075
          ],
          [
            -3.5817521,
            37.1807845
          ],
          [
            -3.5830254,
            37.1807697
          ],
          [
            -3.5836849,
            37.1805186
          ],
          [
            -3.5844088,
            37.1809799
          ],
          [
            -3.5849481,
            37.181104
          ],
          [
            -3.586172,
            37.1801611
          ],
          [
            -3.5865722,
            37.1793728
          ],
          [
            -3.587697,
            37.1793365
          ],
          [
            -3.5894253,
            37.1786145
          ],
          [
            -3.5906595,
            37.1785531
          ],
          [
            -3.5914125,
            37.178261
          ],
          [
            -3.5923349,
            37.1784844
          ],
          [
            -3.5942273,
            37.1777871
          ],
          [
            -3.5949134,
            37.1773625
          ],
          [
            -3.5949065,
            37.1773663
          ],
          [
            -3.5949955,
            37.1772863
          ],
          [
            -3.59504,
            37.1772078
          ],
          [
            -3.5951476,
            37.1771325
          ],
          [
            -3.5957277,
            37.1768159
          ],
          [
            -3.5963689,
            37.1764627
          ],
          [
            -3.5964166,
            37.1764137
          ],
          [
            -3.5972189,
            37.175955
          ],
          [
            -3.5973014,
            37.1759329
          ],
          [
            -3.5980447,
            37.1754872
          ],
          [
            -3.5981617,
            37.1754119
          ],
          [
            -3.5982679,
            37.1753195
          ],
          [
            -3.5984014,
            37.1751829
          ],
          [
            -3.5989547,
            37.174368
          ],
          [
            -3.5992442,
            37.1739583
          ],
          [
            -3.5995154,
            37.1735965
          ],
          [
            -3.5996568,
            37.1734359
          ],
          [
            -3.5996674,
            37.1733409
          ],
          [
            -3.5994246,
            37.1727763
          ],
          [
            -3.599347,
            37.1726262
          ],
          [
            -3.5987799,
            37.1715964
          ],
          [
            -3.5985833,
            37.1712308
          ],
          [
            -3.5984425,
            37.171009
          ],
          [
            -3.5979287,
            37.1702356
          ],
          [
            -3.5969906,
            37.1691588
          ],
          [
            -3.5967019,
            37.1687817
          ],
          [
            -3.5966222,
            37.1685807
          ],
          [
            -3.5965838,
            37.1683466
          ],
          [
            -3.5965668,
            37.1682275
          ],
          [
            -3.5965614,
            37.1681739
          ],
          [
            -3.5965624,
            37.1681367
          ],
          [
            -3.5965718,
            37.1681015
          ],
          [
            -3.5965802,
            37.1680854
          ],
          [
            -3.5965917,
            37.1680701
          ],
          [
            -3.5966225,
            37.1680429
          ],
          [
            -3.5966968,
            37.1680086
          ],
          [
            -3.5966869,
            37.1679243
          ]
        ]
      }
    },
    {
      "type": "Feature",
      "id": "water.genil",
      "properties": {
        "period_id": "c1550",
        "presence": "present",
        "temporal_confidence": "secure",
        "spatial_confidence": "probable",
        "change_from_previous": "retained",
        "physical_state": "complete",
        "name": "Río Genil",
        "function": "Cauce meridional y origen de sistemas de riego urbanos y periurbanos",
        "summary": "El Genil constituía hacia 1550 el gran control natural meridional y alimentaba redes como la Acequia Gorda y sus derivaciones hacia la ciudad, el Realejo y la Vega.",
        "evidence_note": "Su presencia y función hidráulica son seguras; la línea moderna requiere auditoría de meandros, riberas, cruces y rectificaciones por segmentos.",
        "geometry_variant_id": "c1550.water.genil",
        "citations": [
          {
            "source_id": "source.ugr-water-ordinances-2022",
            "locator": "Sistema del Genil y Acequia Gorda",
            "supports": "Documenta captación, distribución, mantenimiento y administración."
          },
          {
            "source_id": "source.ugr-cadi-ordinances-2025",
            "locator": "Ordenanzas de 1531 y arrendamiento de 1533",
            "supports": "Vincula el cauce natural con una derivación documentada próxima a 1550."
          }
        ],
        "id": "water.genil",
        "aliases": [
          "Genil"
        ],
        "modern_search_terms": [
          "Paseo del Salón",
          "Puente Romano",
          "Violón"
        ],
        "category": "water_infrastructure",
        "subtype": "river",
        "evidence_basis": [
          "documentary",
          "historical_cartography",
          "later_description"
        ],
        "geometry_method": "modern_reference_location",
        "geometry_source_refs": [
          "source.dera-hydrology",
          "source.granada-water-culture",
          "source.granada-pepri-islamic-city",
          "source.ugr-water-ordinances-2022",
          "source.ujaen-water-route-2025"
        ],
        "publication_status": "research"
      },
      "geometry": {
        "type": "LineString",
        "coordinates": [
          [
            -3.5518556,
            37.1585642
          ],
          [
            -3.5532352,
            37.1587631
          ],
          [
            -3.5564956,
            37.1598675
          ],
          [
            -3.5596392,
            37.1606843
          ],
          [
            -3.5629167,
            37.1612623
          ],
          [
            -3.5660098,
            37.1610403
          ],
          [
            -3.5681795,
            37.161243
          ],
          [
            -3.5762094,
            37.1631504
          ],
          [
            -3.5783725,
            37.1635212
          ],
          [
            -3.5828027,
            37.1649566
          ],
          [
            -3.5874676,
            37.1658347
          ],
          [
            -3.5882388,
            37.1661965
          ],
          [
            -3.5892728,
            37.16712
          ],
          [
            -3.5915969,
            37.1686535
          ],
          [
            -3.5932462,
            37.1691318
          ],
          [
            -3.5945267,
            37.1689389
          ],
          [
            -3.5965469,
            37.1679632
          ],
          [
            -3.6043681,
            37.165255
          ],
          [
            -3.6095079,
            37.1627634
          ],
          [
            -3.6144331,
            37.1615555
          ],
          [
            -3.6166504,
            37.1614056
          ],
          [
            -3.6199185,
            37.1616731
          ],
          [
            -3.6247865,
            37.1624784
          ],
          [
            -3.6440298,
            37.1687539
          ],
          [
            -3.6466418,
            37.1699525
          ],
          [
            -3.6484887,
            37.171094
          ],
          [
            -3.6490509,
            37.1711917
          ],
          [
            -3.652411,
            37.1727493
          ],
          [
            -3.6533401,
            37.1730079
          ]
        ]
      }
    },
    {
      "type": "Feature",
      "id": "route.elvira-axis",
      "properties": {
        "period_id": "c1550",
        "presence": "present",
        "temporal_confidence": "secure",
        "spatial_confidence": "probable",
        "change_from_previous": "retained",
        "physical_state": "complete",
        "name": "Eje de Elvira",
        "function": "Corredor histórico entre Puerta Elvira y el centro urbano",
        "summary": "La calle Elvira conservaba hacia 1550 el corredor que enlazaba la puerta noroccidental con el corazón de la ciudad, aunque sus extremos y frentes se adaptaban a la nueva organización cristiana.",
        "evidence_note": "La continuidad del eje está respaldada por la puerta, la morfología y la cartografía temprana; anchura y alineaciones exactas requieren regresión documental.",
        "geometry_variant_id": "c1550.route.elvira-axis",
        "citations": [
          {
            "source_id": "source.granada-calle-elvira",
            "locator": "Descripción histórica y función comercial",
            "supports": "Identifica el corredor y su papel dentro de la estructura urbana histórica."
          },
          {
            "source_id": "source.ugr-vico-2023",
            "locator": "Análisis urbanístico de la Plataforma",
            "supports": "Proporciona un control temprano posterior, no una alineación métrica de 1550."
          }
        ],
        "id": "route.elvira-axis",
        "aliases": [
          "Calle de Elvira"
        ],
        "modern_search_terms": [
          "Puerta de Elvira",
          "Plaza Nueva",
          "Calle Elvira"
        ],
        "category": "urban_structure",
        "subtype": "historical_route",
        "evidence_basis": [
          "historical_cartography",
          "parcel_morphology",
          "toponymy",
          "documentary"
        ],
        "geometry_method": "reconstructed_from_multiple_sources",
        "geometry_source_refs": [
          "source.granada-pepri-islamic-city",
          "source.granada-elvira-gate",
          "source.openstreetmap",
          "source.granada-calle-elvira",
          "source.ugr-vico-2023"
        ],
        "publication_status": "research"
      },
      "geometry": {
        "type": "LineString",
        "coordinates": [
          [
            -3.5994918,
            37.1821936
          ],
          [
            -3.5995996,
            37.182147
          ],
          [
            -3.59941,
            37.1821407
          ],
          [
            -3.5993467,
            37.1819488
          ],
          [
            -3.5992357,
            37.1818093
          ],
          [
            -3.5990716,
            37.1812834
          ],
          [
            -3.5990197,
            37.180923
          ],
          [
            -3.5990671,
            37.1803921
          ],
          [
            -3.5989922,
            37.1800447
          ],
          [
            -3.5987828,
            37.17949
          ],
          [
            -3.5985535,
            37.1789831
          ],
          [
            -3.5982961,
            37.1786549
          ],
          [
            -3.5981206,
            37.1784702
          ],
          [
            -3.5979548,
            37.1783085
          ],
          [
            -3.597801,
            37.1780336
          ],
          [
            -3.5976638,
            37.1777342
          ],
          [
            -3.5974702,
            37.177535
          ],
          [
            -3.5972524,
            37.1773824
          ],
          [
            -3.5970126,
            37.177205
          ],
          [
            -3.5967634,
            37.1769489
          ],
          [
            -3.5965861,
            37.1767225
          ]
        ]
      }
    },
    {
      "type": "Feature",
      "id": "bridge.carbon",
      "properties": {
        "period_id": "c1550",
        "presence": "present",
        "temporal_confidence": "secure",
        "spatial_confidence": "probable",
        "change_from_previous": "retained",
        "physical_state": "complete",
        "name": "Puente del Carbón",
        "function": "Paso sobre el Darro entre la alhóndiga y el centro comercial",
        "summary": "El Puente del Carbón continuaba como referencia urbana en el siglo XVI y articulaba un entorno de tenerías activo junto al Corral del Carbón.",
        "evidence_note": "La documentación nombra propiedades debajo del puente y la arqueología registra un estribo y ocupación cristiana temprana; la luz exacta y el tablero de 1550 no están restituidos.",
        "geometry_variant_id": "c1550.bridge.carbon",
        "citations": [
          {
            "source_id": "source.ugr-puente-carbon",
            "locator": "Contexto histórico; inventario de bienes habices",
            "supports": "Atestigua directamente el puente y su topónimo en el siglo XVI."
          },
          {
            "source_id": "source.ugr-puente-carbon",
            "locator": "Excavación de 1992 y estudio cerámico",
            "supports": "Aporta continuidad material sin restituir la totalidad del puente."
          }
        ],
        "id": "bridge.carbon",
        "aliases": [
          "Puente Nuevo",
          "Puente del Corral del Carbón"
        ],
        "modern_search_terms": [
          "Corral del Carbón",
          "Calle Puente del Carbón",
          "Reyes Católicos"
        ],
        "category": "water_infrastructure",
        "subtype": "lost_bridge",
        "evidence_basis": [
          "archaeology",
          "documentary",
          "toponymy",
          "historical_cartography"
        ],
        "geometry_method": "reconstructed_from_multiple_sources",
        "geometry_source_refs": [
          "source.ugr-puente-carbon",
          "source.junta-darro-reyes-catolicos",
          "source.openstreetmap",
          "source.alhambra-corral-carbon"
        ],
        "publication_status": "research"
      },
      "geometry": {
        "type": "LineString",
        "coordinates": [
          [
            -3.59853,
            37.17524
          ],
          [
            -3.598396,
            37.1751453
          ],
          [
            -3.5982066,
            37.1750254
          ]
        ]
      }
    },
    {
      "type": "Feature",
      "id": "water.acequia-real-alhambra",
      "properties": {
        "period_id": "c1550",
        "presence": "present",
        "temporal_confidence": "secure",
        "spatial_confidence": "approximate",
        "change_from_previous": "altered",
        "physical_state": "complete",
        "name": "Acequia Real de la Alhambra",
        "function": "Conducción principal de abastecimiento de Generalife y Alhambra",
        "summary": "La Acequia Real continuaba haciendo posible el abastecimiento del Generalife y la Alhambra, pero la regulación cristiana y sustituciones del cauce impiden tratarla como una línea inalterada desde 1492.",
        "evidence_note": "La continuidad funcional está bien documentada; el trazado conservado es discontinuo y la fase inmediatamente posterior a la conquista necesita una auditoría por tramos.",
        "geometry_variant_id": "c1550.water.acequia-real-alhambra",
        "citations": [
          {
            "source_id": "source.alhambra-real-acequia-2023",
            "locator": "Resumen histórico y continuidad de la infraestructura",
            "supports": "Continuidad prolongada de la conducción después de 1492."
          },
          {
            "source_id": "source.alhambra-real-acequia-2023",
            "locator": "Evolución histórica tras la conquista",
            "supports": "Alteración del sistema durante la época cristiana."
          }
        ],
        "id": "water.acequia-real-alhambra",
        "aliases": [
          "Acequia del Rey"
        ],
        "modern_search_terms": [
          "Darro",
          "Cerro del Sol",
          "Generalife",
          "Alhambra"
        ],
        "category": "water_infrastructure",
        "subtype": "irrigation_channel",
        "evidence_basis": [
          "surviving_fabric",
          "documentary",
          "archaeology",
          "scholarly_reconstruction"
        ],
        "geometry_method": "reconstructed_from_multiple_sources",
        "geometry_source_refs": [
          "source.alhambra-real-acequia",
          "source.alhambra-torre-agua",
          "source.openstreetmap",
          "source.alhambra-real-acequia-2023",
          "source.ugr-generalife-christian-2017"
        ],
        "publication_status": "research"
      },
      "geometry": {
        "type": "LineString",
        "coordinates": [
          [
            -3.5817625,
            37.1788478
          ],
          [
            -3.5816603,
            37.178665
          ],
          [
            -3.581667,
            37.1785531
          ],
          [
            -3.5819913,
            37.1787368
          ],
          [
            -3.5824111,
            37.1787738
          ],
          [
            -3.5832342,
            37.1787096
          ],
          [
            -3.5839494,
            37.1789329
          ],
          [
            -3.5840519,
            37.1790179
          ],
          [
            -3.5842283,
            37.1788751
          ],
          [
            -3.5845059,
            37.1787815
          ],
          [
            -3.5848573,
            37.1785505
          ],
          [
            -3.584979,
            37.1784263
          ],
          [
            -3.5853513,
            37.1778787
          ],
          [
            -3.58572,
            37.17823
          ],
          [
            -3.5859,
            37.1779
          ],
          [
            -3.5858,
            37.1775
          ],
          [
            -3.5856,
            37.1769
          ],
          [
            -3.5853,
            37.1763
          ],
          [
            -3.58508,
            37.17555
          ],
          [
            -3.5852216,
            37.1749396
          ],
          [
            -3.5854219,
            37.1750104
          ],
          [
            -3.5855848,
            37.1750621
          ],
          [
            -3.5865,
            37.1756
          ],
          [
            -3.5874,
            37.1761
          ],
          [
            -3.5884,
            37.17665
          ],
          [
            -3.5891,
            37.1768
          ]
        ]
      }
    },
    {
      "type": "Feature",
      "id": "water.acequia-aynadamar",
      "properties": {
        "period_id": "c1550",
        "presence": "present",
        "temporal_confidence": "secure",
        "spatial_confidence": "approximate",
        "change_from_previous": "retained",
        "physical_state": "complete",
        "name": "Acequia de Aynadamar",
        "function": "Abastecimiento regulado del Albaicín y la Alcazaba",
        "summary": "Aynadamar continuaba activa en la primera mitad del siglo XVI, llevando agua a aljibes, casas, huertas y grandes propiedades del Albaicín y la Alcazaba bajo un reparto municipal detallado.",
        "evidence_note": "Las Ordenanzas confirman función y usuarios; el trazado publicado combina reconstrucción medieval, restos y controles posteriores y necesita auditoría por ramal.",
        "geometry_variant_id": "c1550.water.acequia-aynadamar",
        "citations": [
          {
            "source_id": "source.ugr-water-ordinances-2022",
            "locator": "Apartado 2.2, acequia de Aynadamar o de Alfacar",
            "supports": "Documenta usos, beneficiarios y distribución del agua en la primera mitad del XVI."
          },
          {
            "source_id": "source.junta-fajalauza-2008",
            "locator": "Resultados y contexto hidráulico de Cruz de Piedra",
            "supports": "Aporta un control arqueológico puntual de un ramal, no una red urbana completa."
          }
        ],
        "id": "water.acequia-aynadamar",
        "aliases": [
          "Acequia de Alfacar"
        ],
        "modern_search_terms": [
          "Fuente Grande",
          "El Fargue",
          "Fajalauza",
          "Albaicín alto"
        ],
        "category": "water_infrastructure",
        "subtype": "irrigation_channel",
        "evidence_basis": [
          "documentary",
          "toponymy",
          "scholarly_reconstruction"
        ],
        "geometry_method": "reconstructed_from_multiple_sources",
        "geometry_source_refs": [
          "source.ujaen-water-route-2025",
          "source.granada-pepri-islamic-city",
          "source.openstreetmap",
          "source.ugr-water-ordinances-2022",
          "source.junta-fajalauza-2008"
        ],
        "publication_status": "research"
      },
      "geometry": {
        "type": "MultiLineString",
        "coordinates": [
          [
            [
              -3.5928501,
              37.1886694
            ],
            [
              -3.5928325,
              37.1881977
            ],
            [
              -3.592681,
              37.1877289
            ],
            [
              -3.5926398,
              37.1873435
            ],
            [
              -3.5927828,
              37.1868684
            ],
            [
              -3.5928122,
              37.186224
            ],
            [
              -3.5928189,
              37.1856874
            ],
            [
              -3.59288,
              37.1851711
            ],
            [
              -3.5929994,
              37.1847822
            ],
            [
              -3.5932479,
              37.1842619
            ],
            [
              -3.5934153,
              37.1837218
            ],
            [
              -3.5935647,
              37.1834182
            ],
            [
              -3.593676,
              37.182815
            ],
            [
              -3.5935845,
              37.1825165
            ]
          ],
          [
            [
              -3.592681,
              37.1877289
            ],
            [
              -3.5923145,
              37.1872432
            ],
            [
              -3.5918473,
              37.1869314
            ],
            [
              -3.5917737,
              37.1863966
            ],
            [
              -3.5919411,
              37.1858565
            ],
            [
              -3.5919055,
              37.1856212
            ],
            [
              -3.5914522,
              37.1849658
            ],
            [
              -3.5910801,
              37.1843301
            ],
            [
              -3.5910082,
              37.1838381
            ],
            [
              -3.5914001,
              37.1835721
            ],
            [
              -3.5915487,
              37.1832471
            ],
            [
              -3.5910792,
              37.1828709
            ],
            [
              -3.5905877,
              37.182624
            ],
            [
              -3.5895607,
              37.1823887
            ],
            [
              -3.5890936,
              37.1820768
            ],
            [
              -3.5887783,
              37.1815257
            ]
          ],
          [
            [
              -3.5929994,
              37.1847822
            ],
            [
              -3.592543,
              37.1840411
            ],
            [
              -3.5923056,
              37.1834239
            ],
            [
              -3.5921021,
              37.1829991
            ],
            [
              -3.5916925,
              37.1827934
            ],
            [
              -3.5910712,
              37.1826565
            ],
            [
              -3.5905877,
              37.182624
            ]
          ],
          [
            [
              -3.5934153,
              37.1837218
            ],
            [
              -3.594208,
              37.1834258
            ],
            [
              -3.5951466,
              37.1834485
            ],
            [
              -3.5957966,
              37.1829194
            ],
            [
              -3.5966761,
              37.1827932
            ],
            [
              -3.5974321,
              37.1829485
            ],
            [
              -3.5982781,
              37.1833594
            ],
            [
              -3.5990114,
              37.1836225
            ]
          ],
          [
            [
              -3.593676,
              37.182815
            ],
            [
              -3.5943721,
              37.1828
            ],
            [
              -3.5949782,
              37.1825294
            ],
            [
              -3.5957506,
              37.1824054
            ],
            [
              -3.5969261,
              37.1823157
            ],
            [
              -3.5978388,
              37.1823604
            ],
            [
              -3.5988358,
              37.1825105
            ],
            [
              -3.5995091,
              37.1826032
            ],
            [
              -3.5996001,
              37.1821721
            ],
            [
              -3.5994518,
              37.181789
            ],
            [
              -3.5992499,
              37.1814072
            ],
            [
              -3.599233,
              37.1809569
            ]
          ],
          [
            [
              -3.5935845,
              37.1825165
            ],
            [
              -3.5944056,
              37.1822628
            ],
            [
              -3.5950417,
              37.1820774
            ],
            [
              -3.5955431,
              37.1818735
            ],
            [
              -3.5961524,
              37.1816886
            ],
            [
              -3.5969168,
              37.1813503
            ],
            [
              -3.5970273,
              37.1807256
            ],
            [
              -3.5967411,
              37.1802382
            ],
            [
              -3.5965848,
              37.1796408
            ],
            [
              -3.5962775,
              37.1793041
            ],
            [
              -3.5961755,
              37.1787269
            ]
          ],
          [
            [
              -3.5970273,
              37.1807256
            ],
            [
              -3.5967588,
              37.1807099
            ]
          ],
          [
            [
              -3.5955431,
              37.1818735
            ],
            [
              -3.5952034,
              37.1813873
            ],
            [
              -3.594922,
              37.1810285
            ],
            [
              -3.5947721,
              37.1806026
            ],
            [
              -3.5947513,
              37.1800452
            ],
            [
              -3.5949729,
              37.1795254
            ],
            [
              -3.5951127,
              37.1789644
            ],
            [
              -3.5952361,
              37.1786828
            ]
          ],
          [
            [
              -3.5935845,
              37.1825165
            ],
            [
              -3.5933235,
              37.1819857
            ],
            [
              -3.5929278,
              37.1814363
            ]
          ],
          [
            [
              -3.5947721,
              37.1806026
            ],
            [
              -3.5942035,
              37.1804432
            ],
            [
              -3.5940252,
              37.179975
            ],
            [
              -3.5936596,
              37.1795108
            ]
          ]
        ]
      }
    },
    {
      "type": "Feature",
      "id": "water.acequia-gorda",
      "properties": {
        "period_id": "c1550",
        "presence": "present",
        "temporal_confidence": "secure",
        "spatial_confidence": "approximate",
        "change_from_previous": "retained",
        "physical_state": "complete",
        "name": "Acequia Gorda",
        "function": "Sistema de riego, molinos y abastecimiento meridional",
        "summary": "El sistema derivado del Genil seguía activo en la primera mitad del siglo XVI; su ramal del Realejo abastecía el barrio y movía numerosos molinos antes de reincorporarse a la red.",
        "evidence_note": "La regulación documenta función y organización, pero el corredor c. 1492 sintetiza un cauce principal y derivaciones que deben distinguirse temporalmente.",
        "geometry_variant_id": "c1550.water.acequia-gorda",
        "citations": [
          {
            "source_id": "source.ugr-water-ordinances-2022",
            "locator": "Apartado 2.1 y nota 36, ramal del Realejo",
            "supports": "Relaciona el ramal urbano con el sistema de Gorda y su función productiva."
          },
          {
            "source_id": "source.ujaen-water-route-2025",
            "locator": "Mapa 5 y síntesis de Gorda y sus derivaciones",
            "supports": "Distingue cauce principal y repartimientos dentro de una reconstrucción histórica amplia."
          }
        ],
        "id": "water.acequia-gorda",
        "aliases": [
          "Acequia Mayor del Genil"
        ],
        "modern_search_terms": [
          "Río Genil",
          "Paseo del Salón",
          "Vega de Granada"
        ],
        "category": "water_infrastructure",
        "subtype": "irrigation_channel",
        "evidence_basis": [
          "documentary",
          "toponymy",
          "scholarly_reconstruction"
        ],
        "geometry_method": "reconstructed_from_multiple_sources",
        "geometry_source_refs": [
          "source.ujaen-water-route-2025",
          "source.dera-hydrology",
          "source.openstreetmap",
          "source.ugr-water-ordinances-2022"
        ],
        "publication_status": "research"
      },
      "geometry": {
        "type": "LineString",
        "coordinates": [
          [
            -3.5821589,
            37.1663899
          ],
          [
            -3.5828896,
            37.1665888
          ],
          [
            -3.5836235,
            37.1668734
          ],
          [
            -3.5842803,
            37.1672455
          ],
          [
            -3.5849443,
            37.1678106
          ],
          [
            -3.5856878,
            37.1683526
          ],
          [
            -3.5866382,
            37.1686969
          ],
          [
            -3.5872806,
            37.1686831
          ],
          [
            -3.5876409,
            37.1682891
          ],
          [
            -3.5881627,
            37.1679131
          ],
          [
            -3.5887927,
            37.1682858
          ],
          [
            -3.5893141,
            37.1686179
          ],
          [
            -3.5897008,
            37.1689314
          ],
          [
            -3.5905127,
            37.16915
          ],
          [
            -3.5913545,
            37.1694537
          ],
          [
            -3.5921419,
            37.1697372
          ],
          [
            -3.5928735,
            37.1699574
          ],
          [
            -3.5936262,
            37.170027
          ],
          [
            -3.5943465,
            37.1699471
          ],
          [
            -3.594877,
            37.1698069
          ],
          [
            -3.5957167,
            37.1693382
          ],
          [
            -3.5964777,
            37.1689141
          ],
          [
            -3.5970577,
            37.1686655
          ],
          [
            -3.5978,
            37.1684563
          ],
          [
            -3.5986217,
            37.168224
          ],
          [
            -3.5992017,
            37.1679754
          ],
          [
            -3.5996204,
            37.1677089
          ],
          [
            -3.5997933,
            37.1673189
          ],
          [
            -3.6001356,
            37.1671613
          ],
          [
            -3.6007245,
            37.1671486
          ],
          [
            -3.6010976,
            37.1670976
          ],
          [
            -3.6012972,
            37.166707
          ],
          [
            -3.601586,
            37.1665505
          ],
          [
            -3.6019843,
            37.1664561
          ],
          [
            -3.602651,
            37.1663773
          ],
          [
            -3.6032059,
            37.1661722
          ],
          [
            -3.6040543,
            37.1659392
          ]
        ]
      }
    },
    {
      "type": "Feature",
      "id": "water.acequia-cadi",
      "properties": {
        "period_id": "c1550",
        "presence": "present",
        "temporal_confidence": "secure",
        "spatial_confidence": "approximate",
        "change_from_previous": "retained",
        "physical_state": "complete",
        "name": "Acequia del Cadí",
        "function": "Canal de riego del sistema del Genil y los pagos meridionales",
        "summary": "La Acequia del Cadí estaba activa y regulada en 1531–1533, con usos agrícolas y arrendamientos documentados que la sitúan firmemente dentro del sistema hidráulico de c. 1550.",
        "evidence_note": "La presencia y administración son seguras; las ordenanzas no proporcionan por sí solas un eje cartográfico continuo para todos los tramos urbanos y rurales.",
        "geometry_variant_id": "c1550.water.acequia-cadi",
        "citations": [
          {
            "source_id": "source.ugr-cadi-ordinances-2025",
            "locator": "Ordenanzas de la acequia del Cadí de 1531",
            "supports": "Atestigua directamente su funcionamiento próximo al año representativo."
          },
          {
            "source_id": "source.ugr-cadi-ordinances-2025",
            "locator": "Arrendamiento de agua de 1533",
            "supports": "Aporta usuario, territorio y administración sin definir todo el trazado."
          }
        ],
        "id": "water.acequia-cadi",
        "aliases": [
          "Acequia del Candil",
          "Acequia de las Tinajas"
        ],
        "modern_search_terms": [
          "Aguas Blancas",
          "Cenes de la Vega",
          "Barranco del Abogado",
          "Antequeruela",
          "Campo del Príncipe"
        ],
        "category": "water_infrastructure",
        "subtype": "irrigation_channel",
        "evidence_basis": [
          "documentary",
          "toponymy",
          "scholarly_reconstruction"
        ],
        "geometry_method": "reconstructed_from_multiple_sources",
        "geometry_source_refs": [
          "source.ujaen-water-route-2025",
          "source.junta-camino-cementerio-2014",
          "source.openstreetmap",
          "source.ugr-cadi-ordinances-2025"
        ],
        "publication_status": "research"
      },
      "geometry": {
        "type": "LineString",
        "coordinates": [
          [
            -3.5821909,
            37.1672475
          ],
          [
            -3.5831617,
            37.1674198
          ],
          [
            -3.584001,
            37.1676592
          ],
          [
            -3.584546,
            37.167905
          ],
          [
            -3.5852067,
            37.1683844
          ],
          [
            -3.5855943,
            37.1687194
          ],
          [
            -3.5860825,
            37.1688805
          ],
          [
            -3.5863913,
            37.1692601
          ],
          [
            -3.5866506,
            37.1697481
          ],
          [
            -3.586914,
            37.1703433
          ],
          [
            -3.5874889,
            37.1706742
          ],
          [
            -3.5879615,
            37.1711361
          ],
          [
            -3.5885517,
            37.1718745
          ],
          [
            -3.5891646,
            37.172505
          ],
          [
            -3.5899414,
            37.1732179
          ],
          [
            -3.5904336,
            37.1734862
          ],
          [
            -3.5908336,
            37.1734347
          ],
          [
            -3.591257,
            37.1732968
          ]
        ]
      }
    },
    {
      "type": "Feature",
      "id": "water.acequia-romayla",
      "properties": {
        "period_id": "c1550",
        "presence": "present",
        "temporal_confidence": "secure",
        "spatial_confidence": "approximate",
        "change_from_previous": "retained",
        "physical_state": "complete",
        "name": "Acequia de Romayla",
        "function": "Canal derivado del Darro para riego, abastecimiento y usos urbanos",
        "summary": "La Acequia de Romayla estaba activa en la primera mitad del siglo XVI y distribuía agua por ramales que alcanzaban Bibalmazda, Zacatín, Bib-Rambla, San Francisco y la Alhóndiga del Carbón.",
        "evidence_note": "Las ordenanzas documentan funcionamiento, limpieza y destinos, pero no convierten automáticamente cada descripción itineraria en una polilínea métrica.",
        "geometry_variant_id": "c1550.water.acequia-romayla",
        "citations": [
          {
            "source_id": "source.ugr-water-ordinances-2022",
            "locator": "Apartado sobre Romayla, Axares y Darrillo",
            "supports": "Atestigua continuidad operativa y mantenimiento institucional."
          },
          {
            "source_id": "source.ugr-water-ordinances-2022",
            "locator": "Apartado 2.1, ramales de Romayla",
            "supports": "Documenta alcance funcional sin fijar por sí solo todos los ejes."
          }
        ],
        "id": "water.acequia-romayla",
        "aliases": [
          "Acequia de Santa Ana"
        ],
        "modern_search_terms": [
          "Fuente del Avellano",
          "Cuesta de Gomérez",
          "Plaza Nueva",
          "Sagrario"
        ],
        "category": "water_infrastructure",
        "subtype": "irrigation_channel",
        "evidence_basis": [
          "documentary",
          "toponymy",
          "scholarly_reconstruction"
        ],
        "geometry_method": "reconstructed_from_multiple_sources",
        "geometry_source_refs": [
          "source.ujaen-water-route-2025",
          "source.granada-pepri-islamic-city",
          "source.openstreetmap",
          "source.ugr-water-ordinances-2022"
        ],
        "publication_status": "research"
      },
      "geometry": {
        "type": "LineString",
        "coordinates": [
          [
            -3.5826783,
            37.1803265
          ],
          [
            -3.5834643,
            37.1804226
          ],
          [
            -3.5840549,
            37.1805744
          ],
          [
            -3.5847933,
            37.180281
          ],
          [
            -3.5855009,
            37.1798581
          ],
          [
            -3.5859879,
            37.1792683
          ],
          [
            -3.5866232,
            37.1790615
          ],
          [
            -3.5872885,
            37.1789399
          ],
          [
            -3.5879246,
            37.1787545
          ],
          [
            -3.5886321,
            37.1783316
          ],
          [
            -3.589144,
            37.1784064
          ],
          [
            -3.5898108,
            37.1783277
          ],
          [
            -3.5904501,
            37.1782281
          ],
          [
            -3.5911965,
            37.1781262
          ],
          [
            -3.5918438,
            37.178241
          ],
          [
            -3.5923265,
            37.178252
          ],
          [
            -3.5926705,
            37.1781373
          ],
          [
            -3.5933065,
            37.177952
          ],
          [
            -3.5939694,
            37.177766
          ],
          [
            -3.5946258,
            37.1774085
          ],
          [
            -3.5952782,
            37.1769438
          ],
          [
            -3.5959346,
            37.1765863
          ],
          [
            -3.5965106,
            37.1762306
          ],
          [
            -3.5967722,
            37.1753451
          ],
          [
            -3.5967237,
            37.1747668
          ],
          [
            -3.596793,
            37.1737568
          ],
          [
            -3.596993,
            37.1726581
          ],
          [
            -3.5970939,
            37.1717761
          ]
        ]
      }
    }
  ]
}
